EXCITE                  
1 43819U 18099BP  26068.69809098  .00002813  00000+0  19631-3 0  9999
2 43819  97.4107 111.3606 0017626 337.4818  22.5634 15.06036758396774
STARLINK-4521           
1 53391U 22097D   26068.44743449 -.00000679  00000+0 -24585-4 0  9993
2 53391  53.2173 125.2078 0001481  98.0756 262.0405 15.08836625198638
