[{"OBJECT_NAME":"EXCITE","OBJECT_ID":"2018-099BP","EPOCH":"2026-03-09T16:45:15.060672","MEAN_MOTION":15.06036758,"ECCENTRICITY":0.0017626,"INCLINATION":97.4107,"RA_OF_ASC_NODE":111.3606,"ARG_OF_PERICENTER":337.4818,"MEAN_ANOMALY":22.5634,"EPHEMERIS_TYPE":0,"CLASSIFICATION_TYPE":"U","NORAD_CAT_ID":43819,"ELEMENT_SET_NO":999,"REV_AT_EPOCH":39677,"BSTAR":0.00019631388,"MEAN_MOTION_DOT":2.813e-5,"MEAN_MOTION_DDOT":0},{"OBJECT_NAME":"STARLINK-4521","OBJECT_ID":"2022-097D","EPOCH":"2026-03-09T10:44:18.339936","MEAN_MOTION":15.08836625,"ECCENTRICITY":0.00014815,"INCLINATION":53.2173,"RA_OF_ASC_NODE":125.2078,"ARG_OF_PERICENTER":98.0756,"MEAN_ANOMALY":262.0405,"EPHEMERIS_TYPE":0,"CLASSIFICATION_TYPE":"U","NORAD_CAT_ID":53391,"ELEMENT_SET_NO":999,"REV_AT_EPOCH":19863,"BSTAR":-2.4584613e-5,"MEAN_MOTION_DOT":-6.79e-6,"MEAN_MOTION_DDOT":0}]
